CCSDS_OMM_VERS,COMMENT,CREATION_DATE,ORIGINATOR,OBJECT_NAME,OBJECT_ID,CENTER_NAME,REF_FRAME,TIME_SYSTEM,MEAN_ELEMENT_THEORY,EPOCH,MEAN_MOTION,ECCENTRICITY,INCLINATION,RA_OF_ASC_NODE,ARG_OF_PERICENTER,MEAN_ANOMALY,EPHEMERIS_TYPE,CLASSIFICATION_TYPE,NORAD_CAT_ID,ELEMENT_SET_NO,REV_AT_EPOCH,BSTAR,MEAN_MOTION_DOT,MEAN_MOTION_DDOT,SEMIMAJOR_AXIS,PERIOD,APOAPSIS,PERIAPSIS,OBJECT_TYPE,RCS_SIZE,COUNTRY_CODE,LAUNCH_DATE,SITE,DECAY_DATE,FILE,GP_ID,TLE_LINE0,TLE_LINE1,TLE_LINE2
"2.0","GENERATED VIA SPACE-TRACK.ORG API","2020-03-27T20:29:51","18 SPCS","TBA - TO BE ASSIGNED","1986-015A","EARTH","TEME","UTC","SGP4","2020-03-27T12:43:17.638464","12.40984263","0.00255630","73.6076","110.9227","79.0932","281.2986","0","U","16593","999","54587","-0.00004336000000","-0.00000023","0.0000000000000","7880.570","116.036","1522.580","1482.290","TBA","","","","","","2724890","151195478","0 TBA - TO BE ASSIGNED","1 16593U 86015A   20087.53006526 -.00000023 +00000-0 -43360-4 0  9995","2 16593 073.6076 110.9227 0025563 079.0932 281.2986 12.40984263545872"
"2.0","GENERATED VIA SPACE-TRACK.ORG API","2020-03-27T20:29:51","18 SPCS","TBA - TO BE ASSIGNED","2014-028C","EARTH","TEME","UTC","SGP4","2020-03-27T10:52:21.235584","12.42885380","0.00194070","82.4421","92.4391","347.9158","12.1454","0","U","39763","999","26525","0.00016525000000","0.00000033","0.0000000000000","7872.532","115.859","1509.675","1479.119","TBA","","","","","","2724890","151206576","0 TBA - TO BE ASSIGNED","1 39763U 14028C   20087.45302356 +.00000033 +00000-0 +16525-3 0  9996","2 39763 082.4421 092.4391 0019407 347.9158 012.1454 12.42885380265255"
"2.0","GENERATED VIA SPACE-TRACK.ORG API","2020-03-27T06:46:09","18 SPCS","TBA - TO BE ASSIGNED","2014-028C","EARTH","TEME","UTC","SGP4","2020-03-27T03:08:41.481024","12.42885365","0.00194070","82.4421","92.6408","348.6167","11.4471","0","U","39763","999","26521","0.00016525000000","0.00000033","0.0000000000000","7872.532","115.859","1509.675","1479.119","TBA","","","","","","2724606","151185104","0 TBA - TO BE ASSIGNED","1 39763U 14028C   20087.13103566  .00000033  00000-0  16525-3 0  9993","2 39763  82.4421  92.6408 0019407 348.6167  11.4471 12.42885365265214"
"2.0","GENERATED VIA SPACE-TRACK.ORG API","2020-03-27T01:34:57","18 SPCS","TBA - TO BE ASSIGNED","2014-028C","EARTH","TEME","UTC","SGP4","2020-03-26T19:25:01.719552","12.42885350","0.00194070","82.4421","92.8425","349.3176","10.7485","0","U","39763","999","26517","0.00016525000000","0.00000033","0.0000000000000","7872.532","115.859","1509.675","1479.119","TBA","","","","","","2724550","151179159","0 TBA - TO BE ASSIGNED","1 39763U 14028C   20086.80904768 +.00000033 +00000-0 +16525-3 0  9999","2 39763 082.4421 092.8425 0019407 349.3176 010.7485 12.42885350265179"
"2.0","GENERATED VIA SPACE-TRACK.ORG API","2020-03-27T01:34:57","18 SPCS","TBA - TO BE ASSIGNED","1986-015A","EARTH","TEME","UTC","SGP4","2020-03-26T07:42:10.979424","12.40984268","0.00255630","73.6077","112.5433","80.8860","279.5074","0","U","16593","999","54572","0.00005406100000","-0.00000010","0.0000000000000","7880.570","116.036","1522.580","1482.290","TBA","","","","","","2724550","151168061","0 TBA - TO BE ASSIGNED","1 16593U 86015A   20086.32096041 -.00000010 +00000-0 +54061-4 0  9997","2 16593 073.6077 112.5433 0025563 080.8860 279.5074 12.40984268545727"
"2.0","GENERATED VIA SPACE-TRACK.ORG API","2020-03-26T11:26:08","18 SPCS","TBA - TO BE ASSIGNED","1986-015A","EARTH","TEME","UTC","SGP4","2020-03-26T05:46:06.533760","12.40984271","0.00255630","73.6077","112.6513","81.0051","279.3884","0","U","16593","999","54596","0.00005435300000","-0.00000010","0.0000000000000","7880.570","116.036","1522.580","1482.290","TBA","","","","","","2724060","151154177","0 TBA - TO BE ASSIGNED","1 16593U 86015A   20086.24035340 -.00000010  00000-0  54353-4 0  9997","2 16593  73.6077 112.6513 0025563  81.0051 279.3884 12.40984271545969"
"2.0","GENERATED VIA SPACE-TRACK.ORG API","2020-03-26T02:07:55","18 SPCS","TBA - TO BE ASSIGNED","2014-028C","EARTH","TEME","UTC","SGP4","2020-03-25T18:18:07.926336","12.42884673","0.00206160","82.4428","93.5014","351.7780","8.2958","0","U","39763","999","26504","-0.00005365700000","0.00000002","0.0000000000000","7872.535","115.859","1510.630","1478.170","TBA","","","","","","2723926","151151233","0 TBA - TO BE ASSIGNED","1 39763U 14028C   20085.76259174 +.00000002 +00000-0 -53657-4 0  9992","2 39763 082.4428 093.5014 0020616 351.7780 008.2958 12.42884673265040"
"2.0","GENERATED VIA SPACE-TRACK.ORG API","2020-03-25T17:06:21","18 SPCS","TBA - TO BE ASSIGNED","2014-028C","EARTH","TEME","UTC","SGP4","2020-03-25T12:30:23.101344","12.42884676","0.00206160","82.4428","93.6527","352.3037","7.7723","0","U","39763","999","26501","-0.00005365700000","0.00000002","0.0000000000000","7872.535","115.859","1510.630","1478.170","TBA","","","","","","2723802","151132577","0 TBA - TO BE ASSIGNED","1 39763U 14028C   20085.52110071 +.00000002 +00000-0 -53657-4 0  9998","2 39763 082.4428 093.6527 0020616 352.3037 007.7723 12.42884676265016"
"2.0","GENERATED VIA SPACE-TRACK.ORG API","2020-03-26T02:07:55","18 SPCS","TBA - TO BE ASSIGNED","1986-015A","EARTH","TEME","UTC","SGP4","2020-03-25T12:21:26.534880","12.40984266","0.00255610","73.6078","113.6236","82.0734","278.3209","0","U","16593","999","54562","0.00010366000000","-0.00000003","0.0000000000000","7880.570","116.036","1522.579","1482.291","TBA","","","","","","2723926","151140136","0 TBA - TO BE ASSIGNED","1 16593U 86015A   20085.51489045 -.00000003 +00000-0 +10366-3 0  9998","2 16593 073.6078 113.6236 0025561 082.0734 278.3209 12.40984266545627"
"2.0","GENERATED VIA SPACE-TRACK.ORG API","2020-03-25T17:06:21","18 SPCS","TBA - TO BE ASSIGNED","1986-015A","EARTH","TEME","UTC","SGP4","2020-03-25T10:25:22.089216","12.40984271","0.00255620","73.6078","113.7316","82.1954","278.1991","0","U","16593","999","54561","0.00011554000000","-0.00000002","0.0000000000000","7880.570","116.036","1522.579","1482.291","TBA","","","","","","2723802","151121480","0 TBA - TO BE ASSIGNED","1 16593U 86015A   20085.43428344 -.00000002 +00000-0 +11554-3 0  9993","2 16593 073.6078 113.7316 0025562 082.1954 278.1991 12.40984271545614"
"2.0","GENERATED VIA SPACE-TRACK.ORG API","2020-03-25T01:15:06","18 SPCS","TBA - TO BE ASSIGNED","2014-028C","EARTH","TEME","UTC","SGP4","2020-03-24T19:07:08.626368","12.42884687","0.00206160","82.4428","94.1065","353.8808","6.2016","0","U","39763","999","26492","-0.00005365700000","0.00000002","0.0000000000000","7872.535","115.859","1510.630","1478.170","TBA","","","","","","2723446","151104052","0 TBA - TO BE ASSIGNED","1 39763U 14028C   20084.79662762 +.00000002 +00000-0 -53657-4 0  9995","2 39763 082.4428 094.1065 0020616 353.8808 006.2016 12.42884687264921"
"2.0","GENERATED VIA SPACE-TRACK.ORG API","2020-03-24T16:49:31","18 SPCS","TBA - TO BE ASSIGNED","1986-015A","EARTH","TEME","UTC","SGP4","2020-03-24T13:08:33.199008","12.40984224","0.00255660","73.6078","114.9200","83.5178","276.8775","0","U","16593","999","54550","0.00012916000000","0.00000000","0.0000000000000","7880.570","116.036","1522.583","1482.288","TBA","","","","","","2723284","151069853","0 TBA - TO BE ASSIGNED","1 16593U 86015A   20084.54760647 +.00000000 +00000-0 +12916-3 0  9999","2 16593 073.6078 114.9200 0025566 083.5178 276.8775 12.40984224545507"
"2.0","GENERATED VIA SPACE-TRACK.ORG API","2020-03-24T16:49:31","18 SPCS","TBA - TO BE ASSIGNED","2014-028C","EARTH","TEME","UTC","SGP4","2020-03-24T11:23:28.860576","12.42884692","0.00206160","82.4428","94.3082","354.5818","5.5036","0","U","39763","999","26488","-0.00005365700000","0.00000002","0.0000000000000","7872.535","115.859","1510.630","1478.170","TBA","","","","","","2723284","151080950","0 TBA - TO BE ASSIGNED","1 39763U 14028C   20084.47463959 +.00000002 +00000-0 -53657-4 0  9997","2 39763 082.4428 094.3082 0020616 354.5818 005.5036 12.42884692264886"
"2.0","GENERATED VIA SPACE-TRACK.ORG API","2020-03-24T06:26:08","18 SPCS","TBA - TO BE ASSIGNED","1986-015A","EARTH","TEME","UTC","SGP4","2020-03-24T03:28:10.958592","12.40984145","0.00255820","73.6072","115.4600","84.1204","276.2754","0","U","16593","999","54570","0.00000932460000","-0.00000016","0.0000000000000","7880.570","116.036","1522.596","1482.275","TBA","","","","","","2722922","151057038","0 TBA - TO BE ASSIGNED","1 16593U 86015A   20084.14457128 -.00000016  00000-0  93246-5 0  9997","2 16593  73.6072 115.4600 0025582  84.1204 276.2754 12.40984145545701"
"2.0","GENERATED VIA SPACE-TRACK.ORG API","2020-03-24T02:15:15","18 SPCS","TBA - TO BE ASSIGNED","1986-015A","EARTH","TEME","UTC","SGP4","2020-03-23T19:43:53.191488","12.40984196","0.00255650","73.6079","115.8923","84.5853","275.8107","0","U","16593","999","54541","0.00015433000000","0.00000004","0.0000000000000","7880.570","116.036","1522.582","1482.289","TBA","","","","","","2722899","151049143","0 TBA - TO BE ASSIGNED","1 16593U 86015A   20083.82214342 +.00000004 +00000-0 +15433-3 0  9996","2 16593 073.6079 115.8923 0025565 084.5853 275.8107 12.40984196545416"
"2.0","GENERATED VIA SPACE-TRACK.ORG API","2020-03-23T19:06:37","18 SPCS","TBA - TO BE ASSIGNED","2014-028C","EARTH","TEME","UTC","SGP4","2020-03-23T12:12:29.562336","12.42884706","0.00206160","82.4428","94.9133","356.6846","3.4094","0","U","39763","999","26476","-0.00005365700000","0.00000002","0.0000000000000","7872.535","115.859","1510.630","1478.170","TBA","","","","","","2722541","151033126","0 TBA - TO BE ASSIGNED","1 39763U 14028C   20083.50867549 +.00000002 +00000-0 -53657-4 0  9993","2 39763 082.4428 094.9133 0020616 356.6846 003.4094 12.42884706264767"
